
# Worst residual: 4.48 km
# MJD 59523.000000 (2021 Nov  5  0:00)
1969-046F = NORAD 03956 = Vela booster
1 03956U 69046F   21309.49918769  .00000000  00000-0  00000-0 0 11056
2 03956 017.9647 341.6949 8117594 281.7601 110.0250 00.46194592    04

# Worst residual: 16.84 km
# MJD 59524.000000 (2021 Nov  6  0:00)
1969-046F = NORAD 03956 = Vela booster
1 03956U 69046F   21310.49918769  .00000000  00000-0  00000-0 0 11058
2 03956 017.9601 341.7364 8115541 281.7386 276.2674 00.46174591    08

# Worst residual: 8.93 km
# MJD 59525.000000 (2021 Nov  7  0:00)
1969-046F = NORAD 03956 = Vela booster
1 03956U 69046F   21311.49918769  .00000000  00000-0  00000-0 0 11059
2 03956 017.9589 341.7221 8116659 281.8018 082.4933 00.46185308    02

# Worst residual: 5.09 km
# MJD 59526.000000 (2021 Nov  8  0:00)
1969-046F = NORAD 03956 = Vela booster
1 03956U 69046F   21312.49918769  .00000000  00000-0  00000-0 0 11050
2 03956 017.9559 341.7401 8116148 281.8019 248.7589 00.46186382    00

# Worst residual: 13.17 km
# MJD 59527.000000 (2021 Nov  9  0:00)
1969-046F = NORAD 03956 = Vela booster
1 03956U 69046F   21313.49918769  .00000000  00000-0  00000-0 0 11051
2 03956 017.9555 341.7369 8116949 281.8417 054.9984 00.46179176    09

# Worst residual: 1.92 km
# MJD 59528.000000 (2021 Nov 10  0:00)
1969-046F = NORAD 03956 = Vela booster
1 03956U 69046F   21314.49918769  .00000000  00000-0  00000-0 0 11052
2 03956 017.9518 341.7379 8117468 281.8589 221.2736 00.46192772    07

# Worst residual: 9.76 km
# MJD 59529.000000 (2021 Nov 11  0:00)
1969-046F = NORAD 03956 = Vela booster
1 03956U 69046F   21315.49918769  .00000000  00000-0  00000-0 0 11053
2 03956 017.9518 341.7371 8117159 281.8885 027.5228 00.46197805    00

# Worst residual: 1.81 km
# MJD 59530.000000 (2021 Nov 12  0:00)
1969-046F = NORAD 03956 = Vela booster
1 03956U 69046F   21316.49918769  .00000000  00000-0  00000-0 0 11054
2 03956 017.9470 341.7499 8117810 281.9031 193.7791 00.46195411    08

# Worst residual: 5.51 km
# MJD 59531.000000 (2021 Nov 13  0:00)
1969-046F = NORAD 03956 = Vela booster
1 03956U 69046F   21317.49918769  .00000000  00000-0  00000-0 0 11055
2 03956 017.9454 341.7621 8116091 281.9188 000.0136 00.46211409    09

# Worst residual: 2.47 km
# MJD 59532.000000 (2021 Nov 14  0:00)
1969-046F = NORAD 03956 = Vela booster
1 03956U 69046F   21318.49918769  .00000000  00000-0  00000-0 0 11056
2 03956 017.9401 341.7750 8117556 281.9295 166.2809 00.46201619    04

# Worst residual: 9.87 km
# MJD 59533.000000 (2021 Nov 15  0:00)
1969-046F = NORAD 03956 = Vela booster
1 03956U 69046F   21319.49918769  .00000000  00000-0  00000-0 0 11057
2 03956 017.9372 341.8007 8115335 281.9206 332.5574 00.46192126    01

# Worst residual: 3.14 km
# MJD 59534.000000 (2021 Nov 16  0:00)
1969-046F = NORAD 03956 = Vela booster
1 03956U 69046F   21320.49918769  .00000000  00000-0  00000-0 0 11059
2 03956 017.9319 341.8023 8117281 281.9364 138.8101 00.46200904    04

# Worst residual: 12.75 km
# MJD 59535.000000 (2021 Nov 17  0:00)
1969-046F = NORAD 03956 = Vela booster
1 03956U 69046F   21321.49918769  .00000000  00000-0  00000-0 0 11050
2 03956 017.9290 341.8232 8116858 281.9210 305.1616 00.46179780    00

# Worst residual: 7.12 km
# MJD 59536.000000 (2021 Nov 18  0:00)
1969-046F = NORAD 03956 = Vela booster
1 03956U 69046F   21322.49918769  .00000000  00000-0  00000-0 0 11051
2 03956 017.9258 341.8211 8118021 281.9549 111.3757 00.46185742    08

# Worst residual: 18.92 km
# MJD 59537.000000 (2021 Nov 19  0:00)
1969-046F = NORAD 03956 = Vela booster
1 03956U 69046F   21323.49918769  .00000000  00000-0  00000-0 0 11052
2 03956 017.9212 341.8549 8120461 281.9327 277.6619 00.46181310    07

# Worst residual: 9.65 km
# MJD 59538.000000 (2021 Nov 20  0:00)
1969-046F = NORAD 03956 = Vela booster
1 03956U 69046F   21324.49918769  .00000000  00000-0  00000-0 0 11053
2 03956 017.9207 341.8478 8121999 281.9955 083.8870 00.46177796    05

# Worst residual: 6.76 km
# MJD 59539.000000 (2021 Nov 21  0:00)
1969-046F = NORAD 03956 = Vela booster
1 03956U 69046F   21325.49918769  .00000000  00000-0  00000-0 0 11054
2 03956 017.9138 341.9407 8122644 281.9369 250.0505 00.46178322    07

# Worst residual: 15.80 km
# MJD 59540.000000 (2021 Nov 22  0:00)
1969-046F = NORAD 03956 = Vela booster
1 03956U 69046F   21326.49918769  .00000000  00000-0  00000-0 0 11055
2 03956 017.9103 341.9573 8124818 281.9723 056.2889 00.46181612    09

# Worst residual: 5.13 km
# MJD 59541.000000 (2021 Nov 23  0:00)
1969-046F = NORAD 03956 = Vela booster
1 03956U 69046F   21327.49918769  .00000000  00000-0  00000-0 0 11056
2 03956 017.9039 342.0431 8121321 281.9232 222.5285 00.46179149    03

# Worst residual: 14.17 km
# MJD 59542.000000 (2021 Nov 24  0:00)
1969-046F = NORAD 03956 = Vela booster
1 03956U 69046F   21328.49918769  .00000000  00000-0  00000-0 0 11057
2 03956 017.8954 342.0894 8121258 281.9130 028.7327 00.46179085    09

# Worst residual: 3.19 km
# MJD 59543.000000 (2021 Nov 25  0:00)
1969-046F = NORAD 03956 = Vela booster
1 03956U 69046F   21329.49918769  .00000000  00000-0  00000-0 0 11058
2 03956 017.8905 342.1149 8119610 281.9075 195.0613 00.46196299    08

# Worst residual: 8.43 km
# MJD 59544.000000 (2021 Nov 26  0:00)
1969-046F = NORAD 03956 = Vela booster
1 03956U 69046F   21330.49918769  .00000000  00000-0  00000-0 0 11050
2 03956 017.8836 342.1579 8117229 281.8818 001.3041 00.46191687    06

# Worst residual: 2.91 km
# MJD 59545.000000 (2021 Nov 27  0:00)
1969-046F = NORAD 03956 = Vela booster
1 03956U 69046F   21331.49918769  .00000000  00000-0  00000-0 0 11051
2 03956 017.8782 342.1560 8118542 281.9006 167.5890 00.46200891    00

# Worst residual: 6.36 km
# MJD 59546.000000 (2021 Nov 28  0:00)
1969-046F = NORAD 03956 = Vela booster
1 03956U 69046F   21332.49918769  .00000000  00000-0  00000-0 0 11052
2 03956 017.8761 342.1704 8117549 281.9037 333.8716 00.46199517    04

# Worst residual: 3.36 km
# MJD 59547.000000 (2021 Nov 29  0:00)
1969-046F = NORAD 03956 = Vela booster
1 03956U 69046F   21333.49918769  .00000000  00000-0  00000-0 0 11053
2 03956 017.8703 342.1750 8119316 281.9224 140.1156 00.46196015    00

# Worst residual: 6.59 km
# MJD 59548.000000 (2021 Nov 30  0:00)
1969-046F = NORAD 03956 = Vela booster
1 03956U 69046F   21334.49918769  .00000000  00000-0  00000-0 0 11054
2 03956 017.8670 342.1973 8119620 281.9220 306.3872 00.46190217    03

# Worst residual: 5.04 km
# MJD 59549.000000 (2021 Dec  1  0:00)
1969-046F = NORAD 03956 = Vela booster
1 03956U 69046F   21335.49918769  .00000000  00000-0  00000-0 0 11055
2 03956 017.8641 342.1935 8120607 281.9584 112.6299 00.46194894    05

# Worst residual: 15.90 km
# MJD 59550.000000 (2021 Dec  2  0:00)
1969-046F = NORAD 03956 = Vela booster
1 03956U 69046F   21336.49918769  .00000000  00000-0  00000-0 0 11056
2 03956 017.8589 342.2373 8119143 281.9349 278.8739 00.46177366    04
